{
  "type": "FeatureCollection",
  "features": [
    {
      "type": "Feature",
      "properties": {
        "norad_id": 29857,
        "name": "FENGYUN 1C DEB",
        "group": "fengyun-1c-debris",
        "lat": 57.892840925028025,
        "lon": -7.034768956368634,
        "alt_km": 1086.3790959038697,
        "timestamp": "2025-12-26T18:39:32.552124+00:00",
        "meta_object_name": "FENGYUN 1C DEB",
        "meta_object_id": "1999-025FB",
        "meta_epoch": "2025-12-24T12:30:00.203616",
        "meta_mean_motion": 13.81919497,
        "meta_eccentricity": 0.01927413,
        "meta_inclination": 98.4222,
        "meta_ra_of_asc_node": 4.605,
        "meta_arg_of_pericenter": 262.1723,
        "meta_mean_anomaly": 95.7515,
        "meta_ephemeris_type": 0,
        "meta_classification_type": "U",
        "meta_norad_cat_id": 29857,
        "meta_element_set_no": 999,
        "meta_rev_at_epoch": 94938,
        "meta_bstar": 0.0012908448,
        "meta_mean_motion_dot": 1.556e-05,
        "meta_mean_motion_ddot": 0,
        "tle_line1": "1 29857U 99025FB  25358.52083569  .00001556  00000+0  12908-2 0  9995",
        "tle_line2": "2 29857  98.4222   4.6050 0192741 262.1723  95.7515 13.81919497949389"
      },
      "geometry": {
        "type": "Point",
        "coordinates": [
          -7.034768956368634,
          57.892840925028025
        ]
      }
    },
    {
      "type": "Feature",
      "properties": {
        "norad_id": 29858,
        "name": "FENGYUN 1C DEB",
        "group": "fengyun-1c-debris",
        "lat": 62.16039636949444,
        "lon": -60.108660320405804,
        "alt_km": 960.9294325141464,
        "timestamp": "2025-12-26T18:39:32.552134+00:00",
        "meta_object_name": "FENGYUN 1C DEB",
        "meta_object_id": "1999-025FC",
        "meta_epoch": "2025-12-25T12:47:50.080992",
        "meta_mean_motion": 13.77815797,
        "meta_eccentricity": 0.0197546,
        "meta_inclination": 99.2127,
        "meta_ra_of_asc_node": 100.7873,
        "meta_arg_of_pericenter": 30.3089,
        "meta_mean_anomaly": 35.444,
        "meta_ephemeris_type": 0,
        "meta_classification_type": "U",
        "meta_norad_cat_id": 29858,
        "meta_element_set_no": 999,
        "meta_rev_at_epoch": 94730,
        "meta_bstar": 0.0010093,
        "meta_mean_motion_dot": 1.125e-05,
        "meta_mean_motion_ddot": 0,
        "tle_line1": "1 29858U 99025FC  25359.53321853  .00001125  00000+0  10093-2 0  9994",
        "tle_line2": "2 29858  99.2127 100.7873 0197546  30.3089  35.4440 13.77815797947303"
      },
      "geometry": {
        "type": "Point",
        "coordinates": [
          -60.108660320405804,
          62.16039636949444
        ]
      }
    },
    {
      "type": "Feature",
      "properties": {
        "norad_id": 29859,
        "name": "FENGYUN 1C DEB",
        "group": "fengyun-1c-debris",
        "lat": -22.247626436144724,
        "lon": 10.29396920426974,
        "alt_km": 796.488393313206,
        "timestamp": "2025-12-26T18:39:32.552144+00:00",
        "meta_object_name": "FENGYUN 1C DEB",
        "meta_object_id": "1999-025FD",
        "meta_epoch": "2025-12-26T12:26:35.522016",
        "meta_mean_motion": 13.74106853,
        "meta_eccentricity": 0.02941527,
        "meta_inclination": 98.3359,
        "meta_ra_of_asc_node": 193.5059,
        "meta_arg_of_pericenter": 175.6877,
        "meta_mean_anomaly": 184.6916,
        "meta_ephemeris_type": 0,
        "meta_classification_type": "U",
        "meta_norad_cat_id": 29859,
        "meta_element_set_no": 999,
        "meta_rev_at_epoch": 94169,
        "meta_bstar": 0.0021868172,
        "meta_mean_motion_dot": 2.778e-05,
        "meta_mean_motion_ddot": 0,
        "tle_line1": "1 29859U 99025FD  25360.51846669  .00002778  00000+0  21868-2 0  9999",
        "tle_line2": "2 29859  98.3359 193.5059 0294152 175.6877 184.6916 13.74106853941690"
      },
      "geometry": {
        "type": "Point",
        "coordinates": [
          10.29396920426974,
          -22.247626436144724
        ]
      }
    },
    {
      "type": "Feature",
      "properties": {
        "norad_id": 29860,
        "name": "FENGYUN 1C DEB",
        "group": "fengyun-1c-debris",
        "lat": 22.10796467523271,
        "lon": -143.06643165294284,
        "alt_km": 1108.65267195482,
        "timestamp": "2025-12-26T18:39:32.552154+00:00",
        "meta_object_name": "FENGYUN 1C DEB",
        "meta_object_id": "1999-025FE",
        "meta_epoch": "2025-12-26T02:29:47.433408",
        "meta_mean_motion": 13.77598649,
        "meta_eccentricity": 0.02215503,
        "meta_inclination": 98.617,
        "meta_ra_of_asc_node": 32.7906,
        "meta_arg_of_pericenter": 307.0407,
        "meta_mean_anomaly": 113.8463,
        "meta_ephemeris_type": 0,
        "meta_classification_type": "U",
        "meta_norad_cat_id": 29860,
        "meta_element_set_no": 999,
        "meta_rev_at_epoch": 94323,
        "meta_bstar": 0.0022482775,
        "meta_mean_motion_dot": 2.648e-05,
        "meta_mean_motion_ddot": 0,
        "tle_line1": "1 29860U 99025FE  25360.10402122  .00002648  00000+0  22483-2 0  9998",
        "tle_line2": "2 29860  98.6170  32.7906 0221550 307.0407 113.8463 13.77598649943237"
      },
      "geometry": {
        "type": "Point",
        "coordinates": [
          -143.06643165294284,
          22.10796467523271
        ]
      }
    },
    {
      "type": "Feature",
      "properties": {
        "norad_id": 29865,
        "name": "FENGYUN 1C DEB",
        "group": "fengyun-1c-debris",
        "lat": 19.882563754274475,
        "lon": 96.4006960582512,
        "alt_km": 582.381539612461,
        "timestamp": "2025-12-26T18:39:32.552164+00:00",
        "meta_object_name": "FENGYUN 1C DEB",
        "meta_object_id": "1999-025FK",
        "meta_epoch": "2025-12-26T12:15:23.997888",
        "meta_mean_motion": 14.82741483,
        "meta_eccentricity": 0.01167148,
        "meta_inclination": 98.9208,
        "meta_ra_of_asc_node": 272.8468,
        "meta_arg_of_pericenter": 98.0233,
        "meta_mean_anomaly": 77.4308,
        "meta_ephemeris_type": 0,
        "meta_classification_type": "U",
        "meta_norad_cat_id": 29865,
        "meta_element_set_no": 999,
        "meta_rev_at_epoch": 962,
        "meta_bstar": 0.00061374725,
        "meta_mean_motion_dot": 5.516e-05,
        "meta_mean_motion_ddot": 0,
        "tle_line1": "1 29865U 99025FK  25360.51069442  .00005516  00000+0  61375-3 0  9993",
        "tle_line2": "2 29865  98.9208 272.8468 0116714  98.0233  77.4308 14.82741483  9628"
      },
      "geometry": {
        "type": "Point",
        "coordinates": [
          96.4006960582512,
          19.882563754274475
        ]
      }
    },
    {
      "type": "Feature",
      "properties": {
        "norad_id": 29866,
        "name": "FENGYUN 1C DEB",
        "group": "fengyun-1c-debris",
        "lat": 72.69047142266777,
        "lon": -40.783280748932945,
        "alt_km": 683.7885062590958,
        "timestamp": "2025-12-26T18:39:32.552174+00:00",
        "meta_object_name": "FENGYUN 1C DEB",
        "meta_object_id": "1999-025FL",
        "meta_epoch": "2025-12-26T05:15:33.193152",
        "meta_mean_motion": 14.64256452,
        "meta_eccentricity": 0.01952181,
        "meta_inclination": 98.0386,
        "meta_ra_of_asc_node": 345.6376,
        "meta_arg_of_pericenter": 172.2358,
        "meta_mean_anomaly": 203.2871,
        "meta_ephemeris_type": 0,
        "meta_classification_type": "U",
        "meta_norad_cat_id": 29866,
        "meta_element_set_no": 999,
        "meta_rev_at_epoch": 524,
        "meta_bstar": 0.00022367756,
        "meta_mean_motion_dot": 1.5e-05,
        "meta_mean_motion_ddot": 0,
        "tle_line1": "1 29866U 99025FL  25360.21913418  .00001500  00000+0  22368-3 0  9990",
        "tle_line2": "2 29866  98.0386 345.6376 0195218 172.2358 203.2871 14.64256452  5248"
      },
      "geometry": {
        "type": "Point",
        "coordinates": [
          -40.783280748932945,
          72.69047142266777
        ]
      }
    },
    {
      "type": "Feature",
      "properties": {
        "norad_id": 29868,
        "name": "FENGYUN 1C DEB",
        "group": "fengyun-1c-debris",
        "lat": -80.39512453113224,
        "lon": 102.00249338960275,
        "alt_km": 539.8400942724711,
        "timestamp": "2025-12-26T18:39:32.552184+00:00",
        "meta_object_name": "FENGYUN 1C DEB",
        "meta_object_id": "1999-025FN",
        "meta_epoch": "2025-12-26T14:51:21.932640",
        "meta_mean_motion": 14.78603789,
        "meta_eccentricity": 0.01952863,
        "meta_inclination": 97.9482,
        "meta_ra_of_asc_node": 46.196,
        "meta_arg_of_pericenter": 319.0231,
        "meta_mean_anomaly": 194.9582,
        "meta_ephemeris_type": 0,
        "meta_classification_type": "U",
        "meta_norad_cat_id": 29868,
        "meta_element_set_no": 999,
        "meta_rev_at_epoch": 500,
        "meta_bstar": 0.00071756719,
        "meta_mean_motion_dot": 7.183e-05,
        "meta_mean_motion_ddot": 0,
        "tle_line1": "1 29868U 99025FN  25360.61900385  .00007183  00000+0  71757-3 0  9994",
        "tle_line2": "2 29868  97.9482  46.1960 0195286 319.0231 194.9582 14.78603789  5006"
      },
      "geometry": {
        "type": "Point",
        "coordinates": [
          102.00249338960275,
          -80.39512453113224
        ]
      }
    }
  ]
}